     3.03           NAVIGATION DATA     E (GALILEO)         RINEX VERSION / TYPE
TPS2RI 1.0.24.1481 TPS-USER            20190219 161228 UTC PGM / RUN BY / DATE
win32 build Jul 27, 2017 (c) Topcon Positioning Systems     COMMENT
lga0219n.tps                                                COMMENT
GPSA    .8382D-08  -.7451D-08  -.5960D-07   .5960D-07       IONOSPHERIC CORR
GPSB    .8806D+05  -.1638D+05  -.1966D+06   .6554D+05       IONOSPHERIC CORR
GPUT  -.1862645149D-08 -.888178420D-14 405504 2041          TIME SYSTEM CORR
GLUT  -.0000000000D+00  .000000000D+00 231300 2041          TIME SYSTEM CORR
GLGP   .1769512892D-07  .000000000D+00 172800 2086          TIME SYSTEM CORR
    18                                                      LEAP SECONDS
                                                            END OF HEADER
E24 2019 02 19 13 30 00  .622508378001D-02 -.197246663447D-10  .000000000000D+00
      .113000000000D+03 -.698750000000D+02  .272439919645D-08  .875458782624D+00
     -.320747494698D-05  .571815297008D-03  .119674950838D-04  .544061109352D+04
      .221400000000D+06 -.707805156708D-07  .259721838928D+01 -.931322574615D-07
      .986846444813D+00  .967500000000D+02  .729216924572D+00 -.530379235281D-08
     -.964325882329D-09  .100000000000D+01  .204100000000D+04
      .107000000000D+03  .000000000000D+00  .428408384323D-07  .479631125927D-07
      .222229000000D+06
E03 2019 02 19 13 30 00 -.135331414640D-03 -.430588897871D-11  .000000000000D+00
      .113000000000D+03  .183750000000D+02  .315834584350D-08  .187378247369D+01
      .908970832825D-06  .228232704103D-03  .142995268106D-04  .544062406731D+04
      .221400000000D+06 -.391155481339D-07  .500422463256D+00 -.931322574615D-08
      .953211853031D+00  .305937500000D+02  .256719630546D+00 -.547951395804D-08
      .663956227871D-09  .100000000000D+01  .204100000000D+04
      .107000000000D+03  .000000000000D+00 -.186264514923D-08 -.209547579288D-08
      .222289000000D+06
E02 2019 02 19 13 30 00  .482271425426D-04  .154898316396D-11  .000000000000D+00
      .113000000000D+03 -.530937500000D+02  .269118352717D-08 -.346381443675D+00
     -.257045030594D-05  .289876712486D-03  .111646950245D-04  .544061780357D+04
      .221400000000D+06 -.447034835815D-07  .259379083074D+01  .409781932831D-07
      .989284339275D+00  .111156250000D+03  .382523554579D+00 -.534307970357D-08
     -.905752013921D-09  .100000000000D+01  .204100000000D+04
      .107000000000D+03  .000000000000D+00 -.605359673500D-08 -.745058059692D-08
      .222329000000D+06
E11 2019 02 19 13 30 00  .571925955592D-02 -.113686837722D-11  .000000000000D+00
      .113000000000D+03  .701562500000D+02  .333656755286D-08 -.137888954234D+00
      .336952507496D-05  .397270428948D-03 -.183656811714D-05  .544059366989D+04
      .221400000000D+06 -.186264514923D-07 -.160526424938D+01  .614672899246D-07
      .982036124398D+00  .386531250000D+03 -.346890107605D+00 -.619490089963D-08
      .261082303697D-09  .100000000000D+01  .204100000000D+04
      .107000000000D+03  .000000000000D+00 -.188592821360D-07 -.204890966415D-07
      .222599000000D+06
E03 2019 02 19 13 40 00 -.135333975777D-03 -.430588897871D-11  .000000000000D+00
      .114000000000D+03  .157187500000D+02  .314727395374D-08  .194695211643D+01
      .787898898125D-06  .227992655709D-03  .142529606819D-04  .544062480164D+04
      .222000000000D+06 -.409781932831D-07  .500419155598D+00 -.130385160446D-07
      .953212258260D+00  .316250000000D+02  .257935107735D+00 -.547665669616D-08
      .665742016542D-09  .100000000000D+01  .204100000000D+04
      .107000000000D+03  .000000000000D+00 -.186264514923D-08 -.209547579288D-08
      .222679000000D+06
E24 2019 02 19 13 40 00  .622507196385D-02 -.197246663447D-10  .000000000000D+00
      .114000000000D+03 -.710000000000D+02  .272439919645D-08  .949529392716D+00
     -.326707959175D-05  .571866985410D-03  .120140612125D-04  .544061146927D+04
      .222000000000D+06 -.558793544769D-07  .259721528497D+01 -.968575477600D-07
      .986845872812D+00  .958437500000D+02  .729531566067D+00 -.530914971882D-08
     -.973969141153D-09  .100000000000D+01  .204100000000D+04
      .107000000000D+03  .000000000000D+00  .428408384323D-07  .479631125927D-07
      .222679000000D+06
E03 2019 02 19 13 50 00 -.135336653329D-03 -.430588897871D-11  .000000000000D+00
      .115000000000D+03  .133125000000D+02  .313441627530D-08  .202023309454D+01
      .679865479469D-06  .227740267292D-03  .141896307468D-04  .544062551498D+04
      .222600000000D+06 -.409781932831D-07  .500415825996D+00 -.223517417908D-07
      .953212678117D+00  .330000000000D+02  .259039223212D+00 -.547058501468D-08
      .668599278415D-09  .100000000000D+01  .204100000000D+04
      .107000000000D+03  .000000000000D+00 -.186264514923D-08 -.209547579288D-08
      .223279000000D+06
E11 2019 02 19 13 50 00  .571925815893D-02 -.112265752250D-11  .000000000000D+00
      .115000000000D+03  .701562500000D+02  .333513892192D-08  .109022155839D-01
      .336952507496D-05  .397252268158D-03 -.179372727871D-05  .544059362984D+04
      .222600000000D+06 -.335276126862D-07 -.160527165467D+01  .633299350739D-07
      .982036376020D+00  .386406250000D+03 -.346908686665D+00 -.620668710486D-08
      .260725145963D-09  .100000000000D+01  .204100000000D+04
      .107000000000D+03  .000000000000D+00 -.188592821360D-07 -.204890966415D-07
      .223549000000D+06
E24 2019 02 19 13 50 00  .622506008949D-02 -.197104554900D-10  .000000000000D+00
      .115000000000D+03 -.720937500000D+02  .272547066965D-08  .102363644849D+01
     -.332482159138D-05  .571898650378D-03  .120475888252D-04  .544061179352D+04
      .222600000000D+06 -.409781932831D-07  .259721216603D+01 -.968575477600D-07
      .986845289107D+00  .952187500000D+02  .729809745791D+00 -.531450708484D-08
     -.981469453571D-09  .100000000000D+01  .204100000000D+04
      .107000000000D+03  .000000000000D+00  .428408384323D-07  .479631125927D-07
      .223549000000D+06
E05 2019 02 19 13 50 00  .104825710878D-03 -.662225829728D-11  .000000000000D+00
      .115000000000D+03  .959375000000D+01  .311655838860D-08  .153803822921D+01
      .502914190292D-06  .395416282117D-04  .140294432640D-04  .544062470627D+04
      .222600000000D+06  .186264514923D-08  .500399805580D+00 -.447034835815D-07
      .953226002375D+00  .380000000000D+02  .152893252238D+01 -.542844040205D-08
      .666813489744D-09  .100000000000D+01  .204100000000D+04
      .107000000000D+03  .000000000000D+00 -.162981450558D-08 -.162981450558D-08
      .223609000000D+06
E08 2019 02 19 13 50 00  .640156597365D-02 -.628119778412D-11  .000000000000D+00
      .115000000000D+03  .263125000000D+02  .305084136550D-08  .149723875915D+01
      .118464231491D-05  .201643677428D-03  .144746154547D-04  .544061974716D+04
      .222600000000D+06 -.577419996262D-07  .491979976186D+00 -.745058059692D-08
      .959203212081D+00  .285000000000D+02 -.190611350014D-02 -.540451083386D-08
      .684314218720D-09  .100000000000D+01  .204100000000D+04
      .107000000000D+03  .000000000000D+00 -.838190317154D-08 -.977888703346D-08
      .223609000000D+06
E25 2019 02 19 13 50 00  .188858294860D-02 -.114681597552D-10  .000000000000D+00
      .115000000000D+03 -.707187500000D+02  .279154485048D-08  .166733992015D+01
     -.318884849548D-05  .646864064038D-04  .112820416689D-04  .544061966515D+04
      .222600000000D+06 -.596046447754D-07  .259118774649D+01  .149011611938D-07
      .988841622228D+00  .110000000000D+03 -.679396920226D+00 -.533629370662D-08
     -.881822445730D-09  .100000000000D+01  .204100000000D+04
      .107000000000D+03  .000000000000D+00 -.116415321827D-08 -.139698386192D-08
      .223849000000D+06
E05 2019 02 19 14 00 00  .104821752757D-03 -.662225829728D-11  .000000000000D+00
      .116000000000D+03  .800000000000D+01  .311941565047D-08  .162014324684D+01
      .424683094025D-06  .396628165618D-04  .141300261021D-04  .544062404633D+04
      .223200000000D+06  .558793544769D-08  .500396549125D+00 -.391155481339D-07
      .953226432473D+00  .360000000000D+02  .152121226188D+01 -.542344019377D-08
      .665027701073D-09  .100000000000D+01  .204100000000D+04
      .107000000000D+03  .000000000000D+00 -.162981450558D-08 -.162981450558D-08
      .223879000000D+06
E08 2019 02 19 14 00 00  .640156224836D-02 -.626698692940D-11  .000000000000D+00
      .116000000000D+03  .266875000000D+02  .305226999644D-08  .157193934419D+01
      .120513141155D-05  .201668590307D-03  .144541263580D-04  .544061961174D+04
      .223200000000D+06 -.521540641785D-07  .491976760693D+00 -.111758708954D-07
      .959203627550D+00  .289062500000D+02 -.222168979944D-02 -.540593946479D-08
      .680742641378D-09  .100000000000D+01  .204100000000D+04
      .107000000000D+03  .000000000000D+00 -.838190317154D-08 -.977888703346D-08
      .223879000000D+06
E11 2019 02 19 14 00 00  .571925740223D-02 -.112265752250D-11  .000000000000D+00
      .116000000000D+03  .701875000000D+02  .333299597552D-08  .852169676859D-01
      .336952507496D-05  .397319556214D-03 -.179931521416D-05  .544059377289D+04
      .223200000000D+06 -.428408384323D-07 -.160527536317D+01  .614672899246D-07
      .982036493053D+00  .387000000000D+03 -.346837107546D+00 -.621383025954D-08
      .261082303697D-09  .100000000000D+01  .204100000000D+04
      .107000000000D+03  .000000000000D+00 -.188592821360D-07 -.204890966415D-07
      .223879000000D+06
E25 2019 02 19 14 00 00  .188857608009D-02 -.114681597552D-10  .000000000000D+00
      .116000000000D+03 -.708125000000D+02  .279440211235D-08  .174239743819D+01
     -.319071114063D-05  .647124834359D-04  .112745910883D-04  .544061956406D+04
      .223200000000D+06 -.651925802231D-07  .259118457781D+01  .558793544769D-08
      .988841113133D+00  .110375000000D+03 -.680069580199D+00 -.533522223342D-08
     -.887894127211D-09  .100000000000D+01  .204100000000D+04
      .107000000000D+03  .000000000000D+00 -.116415321827D-08 -.139698386192D-08
      .223879000000D+06
